{
  "type": "FeatureCollection",
  "features": [
    {
      "type": "Feature",
      "properties": {
        "norad_id": 43783,
        "name": "KAZSTSAT",
        "group": "resource",
        "lat": -29.860177222801926,
        "lon": -150.346723139588,
        "alt_km": 572.975118014072,
        "timestamp": "2025-12-25T07:41:09.380711+00:00",
        "meta_object_name": "KAZSTSAT",
        "meta_object_id": "2018-099AB",
        "meta_epoch": "2025-12-24T14:44:04.878240",
        "meta_mean_motion": 14.99370759,
        "meta_eccentricity": 0.00062643,
        "meta_inclination": 97.4515,
        "meta_ra_of_asc_node": 33.2868,
        "meta_arg_of_pericenter": 277.0962,
        "meta_mean_anomaly": 82.9549,
        "meta_ephemeris_type": 0,
        "meta_classification_type": "U",
        "meta_norad_cat_id": 43783,
        "meta_element_set_no": 999,
        "meta_rev_at_epoch": 38514,
        "meta_bstar": 5.1961687e-05,
        "meta_mean_motion_dot": 5.8e-06,
        "meta_mean_motion_ddot": 0,
        "tle_line1": "1 43783U 18099AB  25358.61394535  .00000580  00000+0  51962-4 0  9990",
        "tle_line2": "2 43783  97.4515  33.2868 0006264 277.0962  82.9549 14.99370759385141"
      },
      "geometry": {
        "type": "Point",
        "coordinates": [
          -150.346723139588,
          -29.860177222801926
        ]
      }
    },
    {
      "type": "Feature",
      "properties": {
        "norad_id": 43831,
        "name": "SAUDISAT 5A",
        "group": "resource",
        "lat": 14.848559646773712,
        "lon": 57.311578330211745,
        "alt_km": 482.26722684809647,
        "timestamp": "2025-12-25T07:41:09.380722+00:00",
        "meta_object_name": "SAUDISAT 5A",
        "meta_object_id": "2018-102A",
        "meta_epoch": "2025-12-24T22:10:36.935040",
        "meta_mean_motion": 15.25802579,
        "meta_eccentricity": 0.00110804,
        "meta_inclination": 97.3331,
        "meta_ra_of_asc_node": 58.8796,
        "meta_arg_of_pericenter": 38.3123,
        "meta_mean_anomaly": 321.89,
        "meta_ephemeris_type": 0,
        "meta_classification_type": "U",
        "meta_norad_cat_id": 43831,
        "meta_element_set_no": 999,
        "meta_rev_at_epoch": 38908,
        "meta_bstar": 0.00026898309,
        "meta_mean_motion_dot": 6.816e-05,
        "meta_mean_motion_ddot": 0,
        "tle_line1": "1 43831U 18102A   25358.92403860  .00006816  00000+0  26898-3 0  9992",
        "tle_line2": "2 43831  97.3331  58.8796 0011080  38.3123 321.8900 15.25802579389085"
      },
      "geometry": {
        "type": "Point",
        "coordinates": [
          57.311578330211745,
          14.848559646773712
        ]
      }
    },
    {
      "type": "Feature",
      "properties": {
        "norad_id": 43833,
        "name": "SAUDISAT 5B",
        "group": "resource",
        "lat": 80.04907496568086,
        "lon": 14.723270070355067,
        "alt_km": 474.13263846857535,
        "timestamp": "2025-12-25T07:41:09.380732+00:00",
        "meta_object_name": "SAUDISAT 5B",
        "meta_object_id": "2018-102C",
        "meta_epoch": "2025-12-24T23:27:18.942048",
        "meta_mean_motion": 15.26150443,
        "meta_eccentricity": 0.00118125,
        "meta_inclination": 97.3426,
        "meta_ra_of_asc_node": 61.6925,
        "meta_arg_of_pericenter": 40.2138,
        "meta_mean_anomaly": 319.9972,
        "meta_ephemeris_type": 0,
        "meta_classification_type": "U",
        "meta_norad_cat_id": 43833,
        "meta_element_set_no": 999,
        "meta_rev_at_epoch": 38920,
        "meta_bstar": 0.0002558097,
        "meta_mean_motion_dot": 6.548e-05,
        "meta_mean_motion_ddot": 0,
        "tle_line1": "1 43833U 18102C   25358.97730257  .00006548  00000+0  25581-3 0  9992",
        "tle_line2": "2 43833  97.3426  61.6925 0011812  40.2138 319.9972 15.26150443389207"
      },
      "geometry": {
        "type": "Point",
        "coordinates": [
          14.723270070355067,
          80.04907496568086
        ]
      }
    },
    {
      "type": "Feature",
      "properties": {
        "norad_id": 44622,
        "name": "GAOFEN-10R",
        "group": "resource",
        "lat": -49.75885496368602,
        "lon": 117.2751093208829,
        "alt_km": 630.7323032597851,
        "timestamp": "2025-12-25T07:41:09.380743+00:00",
        "meta_object_name": "GAOFEN-10R",
        "meta_object_id": "2019-066A",
        "meta_epoch": "2025-12-24T22:33:08.830656",
        "meta_mean_motion": 14.82832354,
        "meta_eccentricity": 0.00070184,
        "meta_inclination": 98.0294,
        "meta_ra_of_asc_node": 306.4946,
        "meta_arg_of_pericenter": 5.9714,
        "meta_mean_anomaly": 354.1582,
        "meta_ephemeris_type": 0,
        "meta_classification_type": "U",
        "meta_norad_cat_id": 44622,
        "meta_element_set_no": 999,
        "meta_rev_at_epoch": 33655,
        "meta_bstar": 0.00021319024,
        "meta_mean_motion_dot": 1.671e-05,
        "meta_mean_motion_ddot": 0,
        "tle_line1": "1 44622U 19066A   25358.93968554  .00001671  00000+0  21319-3 0  9995",
        "tle_line2": "2 44622  98.0294 306.4946 0007018   5.9714 354.1582 14.82832354336556"
      },
      "geometry": {
        "type": "Point",
        "coordinates": [
          117.2751093208829,
          -49.75885496368602
        ]
      }
    },
    {
      "type": "Feature",
      "properties": {
        "norad_id": 44804,
        "name": "CARTOSAT-3",
        "group": "resource",
        "lat": -58.115344429145296,
        "lon": -133.41188211179127,
        "alt_km": 524.3523152692296,
        "timestamp": "2025-12-25T07:41:09.380754+00:00",
        "meta_object_name": "CARTOSAT-3",
        "meta_object_id": "2019-081A",
        "meta_epoch": "2025-12-24T22:44:03.829920",
        "meta_mean_motion": 15.19251545,
        "meta_eccentricity": 0.00137093,
        "meta_inclination": 97.4566,
        "meta_ra_of_asc_node": 58.3741,
        "meta_arg_of_pericenter": 45.1098,
        "meta_mean_anomaly": 315.1247,
        "meta_ephemeris_type": 0,
        "meta_classification_type": "U",
        "meta_norad_cat_id": 44804,
        "meta_element_set_no": 999,
        "meta_rev_at_epoch": 33701,
        "meta_bstar": 0.00018169216,
        "meta_mean_motion_dot": 3.769e-05,
        "meta_mean_motion_ddot": 0,
        "tle_line1": "1 44804U 19081A   25358.94726655  .00003769  00000+0  18169-3 0  9998",
        "tle_line2": "2 44804  97.4566  58.3741 0013709  45.1098 315.1247 15.19251545337019"
      },
      "geometry": {
        "type": "Point",
        "coordinates": [
          -133.41188211179127,
          -58.115344429145296
        ]
      }
    },
    {
      "type": "Feature",
      "properties": {
        "norad_id": 44819,
        "name": "GAOFEN-12 01",
        "group": "resource",
        "lat": 39.4739061391087,
        "lon": -1.2215401932542154,
        "alt_km": 625.3513396982853,
        "timestamp": "2025-12-25T07:41:09.380764+00:00",
        "meta_object_name": "GAOFEN-12 01",
        "meta_object_id": "2019-082A",
        "meta_epoch": "2025-12-24T23:23:48.469056",
        "meta_mean_motion": 14.80671122,
        "meta_eccentricity": 0.00021995,
        "meta_inclination": 97.8125,
        "meta_ra_of_asc_node": 4.9347,
        "meta_arg_of_pericenter": 179.1436,
        "meta_mean_anomaly": 180.9781,
        "meta_ephemeris_type": 0,
        "meta_classification_type": "U",
        "meta_norad_cat_id": 44819,
        "meta_element_set_no": 999,
        "meta_rev_at_epoch": 32831,
        "meta_bstar": 7.1839623e-05,
        "meta_mean_motion_dot": 5.01e-06,
        "meta_mean_motion_ddot": 0,
        "tle_line1": "1 44819U 19082A   25358.97486654  .00000501  00000+0  71840-4 0  9997",
        "tle_line2": "2 44819  97.8125   4.9347 0002199 179.1436 180.9781 14.80671122328312"
      },
      "geometry": {
        "type": "Point",
        "coordinates": [
          -1.2215401932542154,
          39.4739061391087
        ]
      }
    },
    {
      "type": "Feature",
      "properties": {
        "norad_id": 44873,
        "name": "CSG-1",
        "group": "resource",
        "lat": -38.09586208630252,
        "lon": -5.779091356634398,
        "alt_km": 629.6796936235123,
        "timestamp": "2025-12-25T07:41:09.380775+00:00",
        "meta_object_name": "CSG-1",
        "meta_object_id": "2019-092A",
        "meta_epoch": "2025-12-24T22:36:08.342208",
        "meta_mean_motion": 14.82160075,
        "meta_eccentricity": 0.00014711,
        "meta_inclination": 97.8805,
        "meta_ra_of_asc_node": 180.0822,
        "meta_arg_of_pericenter": 85.3084,
        "meta_mean_anomaly": 274.8297,
        "meta_ephemeris_type": 0,
        "meta_classification_type": "U",
        "meta_norad_cat_id": 44873,
        "meta_element_set_no": 999,
        "meta_rev_at_epoch": 32566,
        "meta_bstar": 6.8352165e-05,
        "meta_mean_motion_dot": 4.92e-06,
        "meta_mean_motion_ddot": 0,
        "tle_line1": "1 44873U 19092A   25358.94176322  .00000492  00000+0  68352-4 0  9996",
        "tle_line2": "2 44873  97.8805 180.0822 0001471  85.3084 274.8297 14.82160075325662"
      },
      "geometry": {
        "type": "Point",
        "coordinates": [
          -5.779091356634398,
          -38.09586208630252
        ]
      }
    }
  ]
}